[{"OBJECT_NAME":"ONEWEB-0592","OBJECT_ID":"2022-166S","EPOCH":"2026-03-09T22:08:55.615488","MEAN_MOTION":13.21825481,"ECCENTRICITY":0.00015867,"INCLINATION":87.9169,"RA_OF_ASC_NODE":263.7507,"ARG_OF_PERICENTER":91.2737,"MEAN_ANOMALY":268.8578,"EPHEMERIS_TYPE":0,"CLASSIFICATION_TYPE":"U","NORAD_CAT_ID":54658,"ELEMENT_SET_NO":999,"REV_AT_EPOCH":15832,"BSTAR":-0.00077251786,"MEAN_MOTION_DOT":-3.06e-6,"MEAN_MOTION_DDOT":0},{"OBJECT_NAME":"UME-2 (ISS-B)","OBJECT_ID":"1978-018A","EPOCH":"2026-03-09T11:41:21.062976","MEAN_MOTION":13.43711106,"ECCENTRICITY":0.01659732,"INCLINATION":69.3611,"RA_OF_ASC_NODE":92.2994,"ARG_OF_PERICENTER":213.6385,"MEAN_ANOMALY":261.1964,"EPHEMERIS_TYPE":0,"CLASSIFICATION_TYPE":"U","NORAD_CAT_ID":10674,"ELEMENT_SET_NO":999,"REV_AT_EPOCH":35724,"BSTAR":8.418475e-6,"MEAN_MOTION_DOT":-4.5e-7,"MEAN_MOTION_DDOT":0}]
